OBJECT_NAME,OBJECT_ID,EPOCH,MEAN_MOTION,ECCENTRICITY,INCLINATION,RA_OF_ASC_NODE,ARG_OF_PERICENTER,MEAN_ANOMALY,EPHEMERIS_TYPE,CLASSIFICATION_TYPE,NORAD_CAT_ID,ELEMENT_SET_NO,REV_AT_EPOCH,BSTAR,MEAN_MOTION_DOT,MEAN_MOTION_DDOT
STARLINK-31415,2024-064X,2026-07-21T21:06:27.563616,15.27581501,.00008511,43.0039,18.7498,290.6914,69.3846,0,U,59419,999,12974,.29824183E-4,.559E-5,0
STARLINK-31466,2024-064Y,2026-07-21T19:26:44.558016,15.27590151,.00009214,43.0043,19.0875,262.0501,98.0246,0,U,59420,999,12973,.75597135E-4,.1819E-4,0
STARLINK-11087 [DTC],2024-065A,2026-07-22T02:39:44.366688,15.69716815,.00010597,53.1594,151.3676,87.8557,272.2582,0,U,59421,999,13262,-.4046519E-5,-.1079E-4,0
STARLINK-11090 [DTC],2024-065B,2026-07-22T06:53:35.697408,15.69714147,.00007305,53.1590,150.3310,82.0131,278.0970,0,U,59422,999,13267,.2073357E-5,-.337E-5,0
STARLINK-11093 [DTC],2024-065C,2026-07-22T03:57:17.850816,15.69712744,.00012258,53.1603,150.9930,52.1029,308.0100,0,U,59423,999,13264,-.1521106E-5,-.773E-5,0
STARLINK-11083 [DTC],2024-065D,2026-07-22T02:32:40.923744,15.69716331,.00006547,53.1605,151.3377,89.2124,270.8968,0,U,59424,999,13258,.16708838E-4,.1437E-4,0
STARLINK-11085 [DTC],2024-065E,2026-07-22T03:43:11.075520,15.69690676,.00011417,53.1592,150.9281,56.0980,304.0146,0,U,59425,999,13259,.25476422E-4,.2496E-4,0
STARLINK-11089 [DTC],2024-065F,2026-07-22T02:46:48.104256,15.69717699,.00008157,53.1589,151.4197,87.8408,272.2703,0,U,59426,999,13263,.7854715E-5,.364E-5,0
STARLINK-31757,2024-065G,2026-07-21T22:12:49.729248,15.34400192,.00012752,53.1598,16.6100,88.6585,271.4564,0,U,59427,999,12950,.16668349E-3,.5259E-4,0
STARLINK-31773,2024-065J,2026-07-21T12:35:59.687232,15.30196758,.00011749,53.1611,21.9109,92.7269,267.3866,0,U,59429,999,12939,.19724964E-4,.225E-5,0
STARLINK-31772,2024-065K,2026-07-21T12:01:42.801312,15.34383965,.00013949,53.1635,18.9237,108.6696,251.4458,0,U,59430,999,12943,-.3555532E-5,-.496E-5,0
STARLINK-31613,2024-065L,2026-07-21T20:48:09.487008,15.34334426,.00016091,53.1611,16.9452,85.3371,274.7815,0,U,59431,999,12949,.54233777E-3,.17953E-3,0
STARLINK-31780,2024-065M,2026-07-21T22:09:47.891808,15.34386901,.00012666,53.1619,16.5781,106.2443,253.8699,0,U,59432,999,12950,.16935243E-3,.5347E-4,0
STARLINK-31740,2024-065N,2026-07-20T19:18:21.888000,15.30199258,.00010907,53.1614,25.2350,93.3911,266.7215,0,U,59433,999,12928,.18512766E-4,.189E-5,0
STARLINK-31580,2024-065P,2026-07-21T22:09:25.258464,15.30202615,.00009468,53.1621,20.1316,100.2509,259.8598,0,U,59434,999,12945,.48783296E-4,.1086E-4,0
STARLINK-31696,2024-065Q,2026-07-21T11:34:26.541696,15.34398868,.00011531,53.1601,18.8073,99.0223,261.0910,0,U,59435,999,12943,-.196171E-5,-.442E-5,0
STARLINK-31700,2024-065R,2026-07-21T11:52:36.896736,15.34385955,.0001144,53.1609,18.8850,95.3476,264.7657,0,U,59436,999,12943,.39063558E-4,.943E-5,0
STARLINK-31706,2024-065S,2026-07-21T12:34:28.455744,15.30196989,.00012037,53.1624,21.9111,93.7567,266.3572,0,U,59437,999,12939,.17596913E-4,.162E-5,0
STARLINK-31711,2024-065T,2026-07-21T11:43:32.924928,15.34382509,.00010057,53.1608,18.8428,115.1660,244.9447,0,U,59438,999,12943,.28400103E-4,.583E-5,0
STARLINK-31708,2024-065U,2026-07-21T12:10:47.490240,15.34400344,.00010251,53.1611,18.9588,93.6609,266.4511,0,U,59439,999,12943,.5268617E-5,-.198E-5,0
STARLINK-31693,2024-065W,2026-07-21T21:42:39.014208,15.34401080,.00011953,53.1632,17.1736,99.6447,260.4691,0,U,59441,999,12949,.2399101E-4,.434E-5,0
TSAT-1A,2024-066A,2026-07-22T05:55:35.050080,15.34785677,.00126999,45.6156,289.0609,308.0780,51.8969,0,U,59442,999,12716,.37831415E-3,.12729E-3,0
HAWK-8A,2024-066B,2026-07-21T18:16:33.237984,14.99294191,.00034151,45.5993,97.8614,245.5965,114.4560,0,U,59443,999,12502,.82472489E-4,.791E-5,0
CAPELLA-14 (ACADIA-4),2024-066C,2026-07-21T23:54:17.459424,15.06873860,.00008222,45.6035,72.2600,200.2271,159.8581,0,U,59444,999,11774,.79430962E-3,.11809E-3,0
HAWK-8B,2024-066D,2026-07-21T18:17:14.207136,14.99293793,.00036158,45.6170,99.8509,248.9163,111.1332,0,U,59445,999,12501,.70900748E-4,.647E-5,0
HAWK-9A,2024-066E,2026-07-21T17:14:35.949696,14.99228959,.00032709,45.6102,98.7395,233.2978,126.7603,0,U,59446,999,12501,.99185718E-4,.996E-5,0
QPS-SAR-7 (TSUKUYOMI-II),2024-066F,2026-07-22T02:53:29.258592,15.09302860,.00018226,45.6041,61.9435,194.8494,165.2338,0,U,59447,999,12550,.43340946E-3,.677E-4,0
HAWK-9C,2024-066G,2026-07-21T17:14:59.220672,14.99228092,.00031889,45.6072,97.8354,220.0030,140.0616,0,U,59448,999,12501,.10340516E-3,.1048E-4,0
HAWK-8C,2024-066H,2026-07-21T18:16:26.730336,14.99302641,.00031096,45.6080,98.8660,254.0079,106.0460,0,U,59449,999,12501,.9957043E-4,.1003E-4,0
HAWK-9B,2024-066J,2026-07-22T06:02:41.852256,14.99226615,.00035246,45.6125,96.9201,218.5680,141.4950,0,U,59450,999,12509,.11449926E-3,.1185E-4,0
