STARLINK-31415          
1 59419U 24064X   26202.87948569  .00000559  00000+0  29824-4 0  9999
2 59419  43.0039  18.7498 0000851 290.6914  69.3846 15.27581501129745
STARLINK-31466          
1 59420U 24064Y   26202.81023794  .00001819  00000+0  75597-4 0  9997
2 59420  43.0043  19.0875 0000921 262.0501  98.0246 15.27590151129731
STARLINK-11087 [DTC]    
1 59421U 24065A   26203.11093017 -.00001079  00000+0 -40465-5 0  9995
2 59421  53.1594 151.3676 0001059  87.8557 272.2582 15.69716815132625
STARLINK-11090 [DTC]    
1 59422U 24065B   26203.28721872 -.00000337  00000+0  20734-5 0  9993
2 59422  53.1590 150.3310 0000730  82.0131 278.0970 15.69714147132672
STARLINK-11093 [DTC]    
1 59423U 24065C   26203.16478994 -.00000773  00000+0 -15211-5 0  9994
2 59423  53.1603 150.9930 0001225  52.1029 308.0100 15.69712744132643
STARLINK-11083 [DTC]    
1 59424U 24065D   26203.10602921  .00001437  00000+0  16709-4 0  9996
2 59424  53.1605 151.3377 0000654  89.2124 270.8968 15.69716331132585
STARLINK-11085 [DTC]    
1 59425U 24065E   26203.15498930  .00002496  00000+0  25476-4 0  9992
2 59425  53.1592 150.9281 0001141  56.0980 304.0146 15.69690676132596
STARLINK-11089 [DTC]    
1 59426U 24065F   26203.11583454  .00000364  00000+0  78547-5 0  9995
2 59426  53.1589 151.4197 0000815  87.8408 272.2703 15.69717699132634
STARLINK-31757          
1 59427U 24065G   26202.92557557  .00005259  00000+0  16668-3 0  9991
2 59427  53.1598  16.6100 0001275  88.6585 271.4564 15.34400192129504
STARLINK-31773          
1 59429U 24065J   26202.52499638  .00000225  00000+0  19725-4 0  9990
2 59429  53.1611  21.9109 0001174  92.7269 267.3866 15.30196758129395
STARLINK-31772          
1 59430U 24065K   26202.50118983 -.00000496  00000+0 -35555-5 0  9993
2 59430  53.1635  18.9237 0001394 108.6696 251.4458 15.34383965129434
STARLINK-31613          
1 59431U 24065L   26202.86677647  .00017953  00000+0  54234-3 0  9997
2 59431  53.1611  16.9452 0001609  85.3371 274.7815 15.34334426129495
STARLINK-31780          
1 59432U 24065M   26202.92347097  .00005347  00000+0  16935-3 0  9998
2 59432  53.1619  16.5781 0001266 106.2443 253.8699 15.34386901129502
STARLINK-31740          
1 59433U 24065N   26201.80442000  .00000189  00000+0  18513-4 0  9999
2 59433  53.1614  25.2350 0001090  93.3911 266.7215 15.30199258129283
STARLINK-31580          
1 59434U 24065P   26202.92320901  .00001086  00000+0  48783-4 0  9998
2 59434  53.1621  20.1316 0000946 100.2509 259.8598 15.30202615129456
STARLINK-31696          
1 59435U 24065Q   26202.48225164 -.00000442  00000+0 -19617-5 0  9997
2 59435  53.1601  18.8073 0001153  99.0223 261.0910 15.34398868129439
STARLINK-31700          
1 59436U 24065R   26202.49487149  .00000943  00000+0  39064-4 0  9993
2 59436  53.1609  18.8850 0001144  95.3476 264.7657 15.34385955129431
STARLINK-31706          
1 59437U 24065S   26202.52394046  .00000162  00000+0  17597-4 0  9991
2 59437  53.1624  21.9111 0001203  93.7567 266.3572 15.30196989129395
STARLINK-31711          
1 59438U 24065T   26202.48857552  .00000583  00000+0  28400-4 0  9995
2 59438  53.1608  18.8428 0001005 115.1660 244.9447 15.34382509129434
STARLINK-31708          
1 59439U 24065U   26202.50749410 -.00000198  00000+0  52686-5 0  9999
2 59439  53.1611  18.9588 0001025  93.6609 266.4511 15.34400344129431
STARLINK-31693          
1 59441U 24065W   26202.90461822  .00000434  00000+0  23991-4 0  9992
2 59441  53.1632  17.1736 0001195  99.6447 260.4691 15.34401080129494
TSAT-1A                 
1 59442U 24066A   26203.24693345  .00012729  00000+0  37831-3 0  9996
2 59442  45.6156 289.0609 0012699 308.0780  51.8969 15.34785677127168
HAWK-8A                 
1 59443U 24066B   26202.76149581  .00000791  00000+0  82472-4 0  9999
2 59443  45.5993  97.8614 0003415 245.5965 114.4560 14.99294191125026
CAPELLA-14 (ACADIA-4)   
1 59444U 24066C   26202.99603541  .00011809  00000+0  79431-3 0  9998
2 59444  45.6035  72.2600 0000822 200.2271 159.8581 15.06873860117745
HAWK-8B                 
1 59445U 24066D   26202.76196999  .00000647  00000+0  70901-4 0  9990
2 59445  45.6170  99.8509 0003615 248.9163 111.1332 14.99293793125017
HAWK-9A                 
1 59446U 24066E   26202.71847164  .00000996  00000+0  99186-4 0  9996
2 59446  45.6102  98.7395 0003270 233.2978 126.7603 14.99228959125017
QPS-SAR-7 (TSUKUYOMI-II)
1 59447U 24066F   26203.12047753  .00006770  00000+0  43341-3 0  9996
2 59447  45.6041  61.9435 0001822 194.8494 165.2338 15.09302860125506
HAWK-9C                 
1 59448U 24066G   26202.71874098  .00001048  00000+0  10341-3 0  9998
2 59448  45.6072  97.8354 0003188 220.0030 140.0616 14.99228092125012
HAWK-8C                 
1 59449U 24066H   26202.76142049  .00001003  00000+0  99570-4 0  9991
2 59449  45.6080  98.8660 0003109 254.0079 106.0460 14.99302641125018
HAWK-9B                 
1 59450U 24066J   26203.25187329  .00001185  00000+0  11450-3 0  9999
2 59450  45.6125  96.9201 0003524 218.5680 141.4950 14.99226615125095
